{"fetched_at":"2026-03-29T16:36:15Z","count":15609,"tles":[{"name":"STARLINK-32230","line1":"1 60366U 24138M   26087.68702360  .00001248  00000+0  54270-4 0  9990","line2":"2 60366  53.1609 221.5422 0000958  86.4633 273.6477 15.30189365 93534","category":"Starlink"}]}